NORAD_CAT_ID,OBJECT_NAME,OBJECT_TYPE,EPOCH,MEAN_MOTION,ECCENTRICITY,INCLINATION,RA_OF_ASC_NODE,ARG_OF_PERICENTER,MEAN_ANOMALY,BSTAR,MEAN_MOTION_DOT,MEAN_MOTION_DDOT,TLE_LINE0,TLE_LINE1,TLE_LINE2,SEMIMAJOR_AXIS,PERIOD,APOGEE,PERIGEE,DECAYED
52625.0,STARLINK-3988,PAYLOAD,2023-03-31 07:30:15,15.08863667,0.0001139,53.217,52.1852,98.3385,261.7736,0.00076705,0.00011949,0.0,0 STARLINK-3988,1 52625U 22052AD  23090.31267659  .00011949  00000-0  76705-3 0  9996,2 52625  53.2170  52.1852 0001139  98.3385 261.7736 15.08863667 49176,6917.808,95.436,540.461,538.885,0.0
52625.0,STARLINK-3988,PAYLOAD,2023-04-01 04:10:16,15.08845195,0.0001202,53.2172,48.3202,83.6811,276.4318,0.00024404,3.599e-05,0.0,0 STARLINK-3988,1 52625U 22052AD  23091.17380271  .00003599  00000-0  24404-3 0  9998,2 52625  53.2172  48.3202 0001202  83.6811 276.4318 15.08845195 49306,6917.865,95.437,540.561,538.898,0.0
52625.0,STARLINK-3988,PAYLOAD,2023-04-02 02:25:40,15.0884033,0.00011,53.2176,44.1578,86.6164,273.4954,0.00015047,2.108e-05,0.0,0 STARLINK-3988,1 52625U 22052AD  23092.10116684  .00002108  00000-0  15047-3 0  9995,2 52625  53.2176  44.1578 0001100  86.6164 273.4954 15.08840330 49445,6917.879,95.438,540.505,538.983,0.0
52625.0,STARLINK-3988,PAYLOAD,2023-04-02 07:11:49,15.08853613,0.0001086,53.2179,43.2659,90.8199,269.2917,0.00053529,8.245e-05,0.0,0 STARLINK-3988,1 52625U 22052AD  23092.29988211  .00008245  00000-0  53529-3 0  9993,2 52625  53.2179  43.2659 0001086  90.8199 269.2917 15.08853613 49479,6917.839,95.437,540.455,538.953,0.0
52625.0,STARLINK-3988,PAYLOAD,2023-04-03 03:51:51,15.08835641,0.0001206,53.2176,39.3996,79.7893,280.3235,7.0915e-05,8.41e-06,0.0,0 STARLINK-3988,1 52625U 22052AD  23093.16101143  .00000841  00000-0  70915-4 0  9994,2 52625  53.2176  39.3996 0001206  79.7893 280.3235 15.08835641 49600,6917.894,95.438,540.593,538.924,0.0
52625.0,STARLINK-3988,PAYLOAD,2023-04-04 02:07:14,15.08849922,0.0001227,53.2175,35.2363,79.6898,280.4233,0.00027207,4.046e-05,0.0,0 STARLINK-3988,1 52625U 22052AD  23094.08836779  .00004046  00000-0  27207-3 0  9992,2 52625  53.2175  35.2363 0001227  79.6898 280.4233 15.08849922 49740,6917.85,95.437,540.564,538.866,0.0
52625.0,STARLINK-3988,PAYLOAD,2023-04-04 03:42:37,15.08854598,0.0001234,53.2173,34.9387,79.4344,280.6787,0.00037551,5.696e-05,0.0,0 STARLINK-3988,1 52625U 22052AD  23094.15460626  .00005696  00000-0  37551-3 0  9999,2 52625  53.2173  34.9387 0001234  79.4344 280.6787 15.08854598 49372,6917.836,95.437,540.554,538.847,0.0
52625.0,STARLINK-3988,PAYLOAD,2023-04-05 01:58:02,15.08845757,0.0001347,53.2173,30.7762,79.9251,280.1893,0.00026538,3.939e-05,0.0,0 STARLINK-3988,1 52625U 22052AD  23095.08197162  .00003939  00000-0  26538-3 0  9995,2 52625  53.2173  30.7762 0001347  79.9251 280.1893 15.08845757 49897,6917.863,95.437,540.66,538.796,0.0
52625.0,STARLINK-3988,PAYLOAD,2023-04-05 05:08:48,15.08850652,0.0001284,53.2171,30.1803,87.1817,272.9322,0.00041869,6.384e-05,0.0,0 STARLINK-3988,1 52625U 22052AD  23095.21444921  .00006384  00000-0  41869-3 0  9999,2 52625  53.2171  30.1803 0001284  87.1817 272.9322 15.08850652 49531,6917.848,95.437,540.601,538.825,0.0
52625.0,STARLINK-3988,PAYLOAD,2023-04-06 04:59:35,15.08853223,0.00013,53.2173,25.7155,99.6514,260.4625,0.00043909,6.71e-05,0.0,0 STARLINK-3988,1 52625U 22052AD  23096.20804427  .00006710  00000-0  43909-3 0  9990,2 52625  53.2173  25.7155 0001300  99.6514 260.4625 15.08853223 50069,6917.84,95.437,540.604,538.806,0.0
52625.0,STARLINK-3988,PAYLOAD,2023-04-06 19:18:04,15.08837063,0.0001462,53.2182,23.0421,87.6002,272.5158,3.601e-05,2.85e-06,0.0,0 STARLINK-3988,1 52625U 22052AD  23096.80421298  .00000285  00000-0  36010-4 0  9994,2 52625  53.2182  23.0421 0001462  87.6002 272.5158 15.08837063 50153,6917.889,95.438,540.766,538.743,0.0
52625.0,STARLINK-3988,PAYLOAD,2023-04-07 06:25:45,15.08845326,0.0001286,53.2182,20.9602,84.4727,275.6412,0.00027444,4.083e-05,0.0,0 STARLINK-3988,1 52625U 22052AD  23097.26789132  .00004083  00000-0  27444-3 0  9999,2 52625  53.2182  20.9602 0001286  84.4727 275.6412 15.08845326 49845,6917.864,95.437,540.619,538.839,0.0
52625.0,STARLINK-3988,PAYLOAD,2023-04-08 01:30:23,15.08849212,0.000117,53.2175,17.3936,82.5159,277.5966,0.00021432,3.126e-05,0.0,0 STARLINK-3988,1 52625U 22052AD  23098.06276806  .00003126  00000-0  21432-3 0  9995,2 52625  53.2175  17.3936 0001170  82.5159 277.5966 15.08849212 50347,6917.852,95.437,540.527,538.908,0.0
52625.0,STARLINK-3988,PAYLOAD,2023-04-08 18:59:38,15.08839067,0.0001178,53.2177,14.1234,81.2326,278.88,0.00010312,1.354e-05,0.0,0 STARLINK-3988,1 52625U 22052AD  23098.79141495  .00001354  00000-0  10312-3 0  9996,2 52625  53.2177  14.1234 0001178  81.2326 278.8800 15.08839067 50455,6917.883,95.438,540.563,538.933,0.0
52625.0,STARLINK-3988,PAYLOAD,2023-04-09 04:31:56,15.08846018,9.85e-05,53.2178,12.3377,93.8348,266.2757,0.00019939,2.887e-05,0.0,0 STARLINK-3988,1 52625U 22052AD  23099.18885152  .00002887  00000-0  19939-3 0  9991,2 52625  53.2178  12.3377 0000985  93.8348 266.2757 15.08846018 50133,6917.862,95.437,540.408,539.046,0.0
52625.0,STARLINK-3988,PAYLOAD,2023-04-10 02:47:21,15.08841668,0.0001082,53.2181,8.1767,103.5253,256.586,6.6452e-05,7.7e-06,0.0,0 STARLINK-3988,1 52625U 22052AD  23100.11621598  .00000770  00000-0  66452-4 0  9991,2 52625  53.2181   8.1767 0001082 103.5253 256.5860 15.08841668 50656,6917.875,95.437,540.489,538.992,0.0
52625.0,STARLINK-3988,PAYLOAD,2023-04-10 04:22:44,15.08845326,8.94e-05,53.217,7.879,92.9003,267.2091,0.00020493,2.976e-05,0.0,0 STARLINK-3988,1 52625U 22052AD  23100.18245440  .00002976  00000-0  20493-3 0  9990,2 52625  53.2170   7.8790 0000894  92.9003 267.2091 15.08845326 50289,6917.864,95.437,540.348,539.111,0.0
52625.0,STARLINK-3988,PAYLOAD,2023-04-11 04:13:30,15.08851975,9.52e-05,53.2171,3.4151,81.5852,278.5248,0.00038192,5.798e-05,0.0,0 STARLINK-3988,1 52625U 22052AD  23101.17605107  .00005798  00000-0  38192-3 0  9990,2 52625  53.2171   3.4151 0000952  81.5852 278.5248 15.08851975 50437,6917.844,95.437,540.367,539.05,0.0
52625.0,STARLINK-3988,PAYLOAD,2023-04-12 02:28:55,15.08838678,0.0001136,53.2173,359.2506,91.6086,268.5036,3.4931e-05,2.68e-06,0.0,0 STARLINK-3988,1 52625U 22052AD  23102.10341907  .00000268  00000-0  34931-4 0  9994,2 52625  53.2173 359.2506 0001136  91.6086 268.5036 15.08838678 50957,6917.884,95.438,540.535,538.964,0.0
52625.0,STARLINK-3988,PAYLOAD,2023-04-12 23:08:56,15.08832568,0.0001221,53.2177,355.3877,93.8085,266.3046,-5.0727e-05,-1.095e-05,0.0,0 STARLINK-3988,1 52625U 22052AD  23102.96454711 -.00001095  00000-0 -50727-4 0  9998,2 52625  53.2177 355.3877 0001221  93.8085 266.3046 15.08832568 50709,6917.903,95.438,540.613,538.923,0.0
52625.0,STARLINK-3988,PAYLOAD,2023-04-14 02:10:29,15.08860584,0.0001084,53.2179,350.3323,93.5088,266.6028,0.0005849,9.038e-05,0.0,0 STARLINK-3988,1 52625U 22052AD  23104.09062049  .00009038  00000-0  58490-3 0  9990,2 52625  53.2179 350.3323 0001084  93.5088 266.6028 15.08860584 50879,6917.817,95.436,540.432,538.933,0.0
52625.0,STARLINK-3988,PAYLOAD,2023-04-15 02:01:16,15.08864465,0.0001093,53.2171,345.8725,88.9792,271.1325,0.00048968,7.519e-05,0.0,0 STARLINK-3988,1 52625U 22052AD  23105.08421516  .00007519  00000-0  48968-3 0  9999,2 52625  53.2171 345.8725 0001093  88.9792 271.1325 15.08864465 51409,6917.806,95.436,540.427,538.914,0.0
52625.0,STARLINK-3988,PAYLOAD,2023-04-15 21:05:54,15.08837416,0.0001154,53.2175,342.3051,79.0606,281.0516,0.00015715,2.214e-05,0.0,0 STARLINK-3988,1 52625U 22052AD  23105.87910094  .00002214  00000-0  15715-3 0  9991,2 52625  53.2175 342.3051 0001154  79.0606 281.0516 15.08837416 51149,6917.888,95.438,540.552,538.955,0.0
52625.0,STARLINK-3988,PAYLOAD,2023-04-16 01:52:03,15.08846562,0.000111,53.2175,341.4127,77.0401,283.0715,0.00060598,9.371e-05,0.0,0 STARLINK-3988,1 52625U 22052AD  23106.07782045  .00009371  00000-0  60598-3 0  9997,2 52625  53.2175 341.4127 0001110  77.0401 283.0715 15.08846562 51556,6917.86,95.437,540.493,538.957,0.0
52625.0,STARLINK-3988,PAYLOAD,2023-04-16 19:21:18,15.08836093,0.0001334,53.2169,338.1413,95.4697,264.6447,0.0006932,0.0001076,0.0,0 STARLINK-3988,1 52625U 22052AD  23106.80646612  .00010760  00000-0  69320-3 0  9993,2 52625  53.2169 338.1413 0001334  95.4697 264.6447 15.08836093 51666,6917.892,95.438,540.68,538.834,0.0
52625.0,STARLINK-3988,PAYLOAD,2023-04-16 20:56:41,15.08843001,0.0001268,53.2169,337.8435,90.7699,269.3438,0.0005309,8.172e-05,0.0,0 STARLINK-3988,1 52625U 22052AD  23106.87270404  .00008172  00000-0  53090-3 0  9993,2 52625  53.2169 337.8435 0001268  90.7699 269.3438 15.08843001 51290,6917.871,95.437,540.613,538.859,0.0
52625.0,STARLINK-3988,PAYLOAD,2023-04-17 00:07:27,15.08853508,0.0001192,53.2168,337.25,89.9506,270.1623,0.0011645,0.000183,0.0,0 STARLINK-3988,1 52625U 22052AD  23107.00518386  .00018300  00000-0  11645-2 0  9996,2 52625  53.2168 337.2500 0001192  89.9506 270.1623 15.08853508 51692,6917.839,95.437,540.529,538.879,0.0
52625.0,STARLINK-3988,PAYLOAD,2023-04-17 19:12:05,15.0884006,0.0001245,53.2163,333.6813,91.9728,268.1407,0.00044182,6.751e-05,0.0,0 STARLINK-3988,1 52625U 22052AD  23107.80006728  .00006751  00000-0  44182-3 0  9996,2 52625  53.2163 333.6813 0001245  91.9728 268.1407 15.08840060 51812,6917.88,95.438,540.606,538.884,0.0
52625.0,STARLINK-3988,PAYLOAD,2023-04-17 20:47:28,15.08840715,0.0001385,53.2165,333.384,91.1252,268.9899,0.00054098,8.332e-05,0.0,0 STARLINK-3988,1 52625U 22052AD  23107.86630771  .00008332  00000-0  54098-3 0  9997,2 52625  53.2165 333.3840 0001385  91.1252 268.9899 15.08840715 51449,6917.878,95.438,540.701,538.785,0.0
52625.0,STARLINK-3988,PAYLOAD,2023-04-17 23:58:15,15.08846583,0.0001581,53.2173,332.7904,96.5082,263.609,0.00054361,8.376e-05,0.0,0 STARLINK-3988,1 52625U 22052AD  23107.99878675  .00008376  00000-0  54361-3 0  9999,2 52625  53.2173 332.7904 0001581  96.5082 263.6090 15.08846583 51466,6917.86,95.437,540.819,538.632,0.0
